GLOBALSTAR M024         
1 25883U 99043A   25204.56030961 -.00000104  00000+0 -13873-2 0  9994
2 25883  52.0030 298.5554 0001869 156.8733 216.3439 11.10165233118903
GLOBALSTAR M027         
1 25884U 99043B   25204.61054689 -.00000111  00000+0 -18061-2 0  9996
2 25884  52.0239  17.4524 0022032  51.6275 308.6493 11.04372012145260
GLOBALSTAR M054         
1 25885U 99043C   25204.56649288 -.00000090  00000+0 -46732-3 0  9999
2 25885  52.0128 138.7452 0005216 241.2307 290.7002 11.39225044123198
GLOBALSTAR M053         
1 25886U 99043D   25204.44283970 -.00000068  00000+0  18351-4 0  9990
2 25886  51.9988  88.1479 0003219 129.6948  41.6135 11.27665894123535
GLOBALSTAR M058         
1 25907U 99049A   25204.58152125 -.00000053  00000+0  42179-3 0  9990
2 25907  51.9962  11.9923 0001983   0.3903 359.6933 11.93201041545888
GLOBALSTAR M050         
1 25908U 99049B   25204.64184477 -.00000007  00000+0  92297-3 0  9998
2 25908  52.0011  16.7832 0009986 103.0944 334.6358 12.07455810152592
GLOBALSTAR M033         
1 25909U 99049C   25204.47208390 -.00000111  00000+0 -18590-3 0  9992
2 25909  51.9896 246.5767 0013435 337.0352  22.9893 12.20294734540175
GLOBALSTAR M055         
1 25910U 99049D   25204.51684480 -.00000060  00000+0  29300-3 0  9990
2 25910  52.0003 255.4306 0007262 205.7352 154.3139 12.29430193172757
